NORAD_CAT_ID,OBJECT_NAME,OBJECT_TYPE,EPOCH,MEAN_MOTION,ECCENTRICITY,INCLINATION,RA_OF_ASC_NODE,ARG_OF_PERICENTER,MEAN_ANOMALY,BSTAR,MEAN_MOTION_DOT,MEAN_MOTION_DDOT,TLE_LINE0,TLE_LINE1,TLE_LINE2,SEMIMAJOR_AXIS,PERIOD,APOGEE,PERIGEE,DECAYED
52645.0,STARLINK-3973,PAYLOAD,2022-12-02 19:06:43,15.08845105,0.0003043,53.2193,214.2347,34.4191,325.6998,0.00012843,1.756e-05,0.0,0 STARLINK-3973,1 52645U 22052AZ  22336.79633522  .00001756  00000-0  12843-3 0  9996,2 52645  53.2193 214.2347 0003043  34.4191 325.6998 15.08845105 31049,6917.865,95.437,541.835,537.625,0.0
52645.0,STARLINK-3973,PAYLOAD,2022-12-03 09:25:12,15.08834343,0.0002755,53.2193,211.5577,33.8446,326.2722,3.2145e-05,2.23e-06,0.0,0 STARLINK-3973,1 52645U 22052AZ  22337.39250447  .00000223  00000-0  32145-4 0  9990,2 52645  53.2193 211.5577 0002755  33.8446 326.2722 15.08834343 31515,6917.898,95.438,541.669,537.857,0.0
52645.0,STARLINK-3973,PAYLOAD,2022-12-04 01:19:04,15.08827372,0.0003074,53.2195,208.586,36.145,323.9749,-1.9999e-05,-6.07e-06,0.0,0 STARLINK-3973,1 52645U 22052AZ  22338.05491449 -.00000607  00000-0 -19999-4 0  9993,2 52645  53.2195 208.5860 0003074  36.1450 323.9749 15.08827372 31612,6917.919,95.438,541.911,537.6569999999998,0.0
52645.0,STARLINK-3973,PAYLOAD,2022-12-05 01:09:51,15.08840524,0.0002993,53.2198,204.1249,38.8146,321.3061,3.5768e-05,2.81e-06,0.0,0 STARLINK-3973,1 52645U 22052AZ  22339.04850902  .00000281  00000-0  35768-4 0  9994,2 52645  53.2198 204.1249 0002993  38.8146 321.3061 15.08840524 31767,6917.879,95.438,541.814,537.673,0.0
52645.0,STARLINK-3973,PAYLOAD,2022-12-05 20:14:28,15.0884381,0.0003119,53.2195,200.5573,37.4792,322.6417,0.00020695,3.007e-05,0.0,0 STARLINK-3973,1 52645U 22052AZ  22339.84338368  .00003007  00000-0  20695-3 0  9990,2 52645  53.2195 200.5573 0003119  37.4792 322.6417 15.08843810 31509,6917.869000000002,95.437,541.891,537.576,0.0
52645.0,STARLINK-3973,PAYLOAD,2022-12-06 07:22:11,15.0883674,0.0003179,53.2192,198.4756,39.1055,321.0166,0.00016828,2.39e-05,0.0,0 STARLINK-3973,1 52645U 22052AZ  22340.30707363  .00002390  00000-0  16828-3 0  9995,2 52645  53.2192 198.4756 0003179  39.1055 321.0166 15.08836740 31958,6917.89,95.438,541.955,537.556,0.0
52645.0,STARLINK-3973,PAYLOAD,2022-12-06 15:19:06,15.08841663,0.0003057,53.218,196.9891,42.0541,318.0685,3.0042e-05,1.9e-06,0.0,0 STARLINK-3973,1 52645U 22052AZ  22340.63827096  .00000190  00000-0  30042-4 0  9998,2 52645  53.2180 196.9891 0003057  42.0541 318.0685 15.08841663 31622,6917.875,95.437,541.855,537.626,0.0
52645.0,STARLINK-3973,PAYLOAD,2022-12-07 15:09:54,15.08837354,0.0003048,53.2177,192.5288,39.0398,321.0814,-9.5639e-05,-1.810000000000001e-05,0.0,0 STARLINK-3973,1 52645U 22052AZ  22341.63187537 -.00001810  00000-0 -95639-4 0  9993,2 52645  53.2177 192.5288 0003048  39.0398 321.0814 15.08837354 32155,6917.888000000001,95.438,541.862,537.645,0.0
52645.0,STARLINK-3973,PAYLOAD,2022-12-08 00:42:12,15.08845861,0.0003091,53.2174,190.7442,39.5521,320.5696,7.696e-05,9.37e-06,0.0,0 STARLINK-3973,1 52645U 22052AZ  22342.02931225  .00000937  00000-0  76960-4 0  9991,2 52645  53.2174 190.7442 0003091  39.5521 320.5696 15.08845861 32216,6917.861999999999,95.437,541.866,537.589,0.0
52645.0,STARLINK-3973,PAYLOAD,2022-12-08 07:03:45,15.08847746,0.0003055,53.2175,189.5549,39.24,320.8813,0.00013657,1.886e-05,0.0,0 STARLINK-3973,1 52645U 22052AZ  22342.29427085  .00001886  00000-0  13657-3 0  9991,2 52645  53.2175 189.5549 0003055  39.2400 320.8813 15.08847746 31873,6917.857,95.437,541.835,537.6080000000002,0.0
52645.0,STARLINK-3973,PAYLOAD,2022-12-08 19:46:50,15.08839302,0.00031,53.2167,187.1745,31.7272,328.3907,0.00016869,2.397e-05,0.0,0 STARLINK-3973,1 52645U 22052AZ  22342.82419520  .00002397  00000-0  16869-3 0  9991,2 52645  53.2167 187.1745 0003100  31.7272 328.3907 15.08839302 31956,6917.8830000000025,95.438,541.8919999999998,537.6030000000002,0.0
52645.0,STARLINK-3973,PAYLOAD,2022-12-09 00:33:00,15.08830989,0.0003136,53.2176,186.2849,37.1308,322.99,-3.5153e-05,-8.48e-06,0.0,0 STARLINK-3973,1 52645U 22052AZ  22343.02291750 -.00000848  00000-0 -35153-4 0  9996,2 52645  53.2176 186.2849 0003136  37.1308 322.9900 15.08830989 32361,6917.908,95.438,541.942,537.6030000000002,0.0
52645.0,STARLINK-3973,PAYLOAD,2022-12-09 06:54:32,15.0883435,0.0003047,53.2177,185.0953,38.8582,321.2629,8.039e-05,9.91e-06,0.0,0 STARLINK-3973,1 52645U 22052AZ  22343.28787975  .00000991  00000-0  80390-4 0  9993,2 52645  53.2177 185.0953 0003047  38.8582 321.2629 15.08834350 32027,6917.898,95.438,541.871,537.655,0.0
52645.0,STARLINK-3973,PAYLOAD,2022-12-10 01:59:10,15.08839576,0.0003179,53.2172,181.5267,41.7117,318.4117,0.00012786,1.747e-05,0.0,0 STARLINK-3973,1 52645U 22052AZ  22344.08276103  .00001747  00000-0  12786-3 0  9991,2 52645  53.2172 181.5267 0003179  41.7117 318.4117 15.08839576 32524,6917.882,95.438,541.946,537.547,0.0
52645.0,STARLINK-3973,PAYLOAD,2022-12-10 19:28:25,15.08829213,0.0003064,53.2181,178.259,39.4202,320.7013,1.6529e-05,-2.6e-07,0.0,0 STARLINK-3973,1 52645U 22052AZ  22344.81140651 -.00000026  00000-0  16529-4 0  9990,2 52645  53.2181 178.2590 0003064  39.4202 320.7013 15.08829213 32256,6917.913000000001,95.438,541.898,537.659,0.0
52645.0,STARLINK-3973,PAYLOAD,2022-12-11 00:14:34,15.08830138,0.0003064,53.2173,177.3637,39.5754,320.5461,1.4065e-05,-6.5e-07,0.0,0 STARLINK-3973,1 52645U 22052AZ  22345.01012677 -.00000065  00000-0  14065-4 0  9995,2 52645  53.2173 177.3637 0003064  39.5754 320.5461 15.08830138 32660,6917.911,95.438,541.895,537.656,0.0
52645.0,STARLINK-3973,PAYLOAD,2022-12-11 19:19:13,15.0883506,0.0003333,53.2175,173.7954,45.8592,314.2673,0.00014258,1.981e-05,0.0,0 STARLINK-3973,1 52645U 22052AZ  22345.80501264  .00001981  00000-0  14258-3 0  9997,2 52645  53.2175 173.7954 0003333  45.8592 314.2673 15.08835060 32409,6917.895,95.438,542.066,537.455,0.0
52645.0,STARLINK-3973,PAYLOAD,2022-12-12 12:48:27,15.08846948,0.0003346,53.2175,170.5241,46.9673,313.1599,0.00042188,6.434e-05,0.0,0 STARLINK-3973,1 52645U 22052AZ  22346.53365118  .00006434  00000-0  42188-3 0  9995,2 52645  53.2175 170.5241 0003346  46.9673 313.1599 15.08846948 32513,6917.859,95.437,542.039,537.409,0.0
52645.0,STARLINK-3973,PAYLOAD,2022-12-12 14:23:50,15.08849695,0.0003398,53.2176,170.2269,47.3108,312.817,0.00054301,8.367e-05,0.0,0 STARLINK-3973,1 52645U 22052AZ  22346.59989075  .00008367  00000-0  54301-3 0  9992,2 52645  53.2176 170.2269 0003398  47.3108 312.8170 15.08849695 32902,6917.851,95.437,542.066,537.365,0.0
52645.0,STARLINK-3973,PAYLOAD,2022-12-12 22:20:45,15.08863013,0.0003471,53.2178,168.7404,47.5971,312.5315,0.00074359,0.00011574,0.0,0 STARLINK-3973,1 52645U 22052AZ  22346.93108558  .00011574  00000-0  74359-3 0  9998,2 52645  53.2178 168.7404 0003471  47.5971 312.5315 15.08863013 32952,6917.81,95.436,542.076,537.274,0.0
52645.0,STARLINK-3973,PAYLOAD,2022-12-13 12:39:13,15.08850009,0.0003509,53.218,166.0647,49.7372,310.3926,3.6225e-05,2.88e-06,0.0,0 STARLINK-3973,1 52645U 22052AZ  22347.52724339  .00000288  00000-0  36225-4 0  9996,2 52645  53.2180 166.0647 0003509  49.7372 310.3926 15.08850009 32669,6917.85,95.437,542.1419999999998,537.2869999999998,0.0
52645.0,STARLINK-3973,PAYLOAD,2022-12-13 20:36:09,15.08851504,0.000352,53.2181,164.578,51.3862,308.7445,7.2265e-05,8.62e-06,0.0,0 STARLINK-3973,1 52645U 22052AZ  22347.85844075  .00000862  00000-0  72265-4 0  9994,2 52645  53.2181 164.5780 0003520  51.3862 308.7445 15.08851504 32711,6917.845,95.437,542.145,537.275,0.0
52645.0,STARLINK-3973,PAYLOAD,2022-12-14 12:30:00,15.08848909,0.0003293,53.2176,161.6037,46.7653,313.3613,-0.00010836,-2.014e-05,0.0,0 STARLINK-3973,1 52645U 22052AZ  22348.52083581 -.00002014  00000-0 -10836-3 0  9994,2 52645  53.2176 161.6037 0003293  46.7653 313.3613 15.08848909 32816,6917.853,95.437,541.996,537.44,0.0
52645.0,STARLINK-3973,PAYLOAD,2022-12-14 18:51:32,15.08846848,0.0003448,53.2155,160.4127,44.664,315.4629,-0.00011916,-2.185e-05,0.0,0 STARLINK-3973,1 52645U 22052AZ  22348.78579600 -.00002185  00000-0 -11916-3 0  9993,2 52645  53.2155 160.4127 0003448  44.6640 315.4629 15.08846848 33232,6917.859,95.437,542.11,537.339,0.0
52645.0,STARLINK-3973,PAYLOAD,2022-12-15 12:20:47,15.08849233,0.000345,53.218,157.1434,51.2833,308.8467,8.0509e-05,9.93e-06,0.0,0 STARLINK-3973,1 52645U 22052AZ  22349.51443377  .00000993  00000-0  80509-4 0  9994,2 52645  53.2180 157.1434 0003450  51.2833 308.8467 15.08849233 32961,6917.852,95.437,542.104,537.331,0.0
52645.0,STARLINK-3973,PAYLOAD,2022-12-15 20:17:42,15.0885138,0.0003466,53.218,155.6568,52.3112,307.8194,0.00010235,1.341e-05,0.0,0 STARLINK-3973,1 52645U 22052AZ  22349.84563088  .00001341  00000-0  10235-3 0  9998,2 52645  53.2180 155.6568 0003466  52.3112 307.8194 15.08851380 33391,6917.846,95.437,542.1080000000002,537.313,0.0
52645.0,STARLINK-3973,PAYLOAD,2022-12-16 12:11:33,15.08844095,0.0003497,53.218,152.6834,52.8829,307.2482,-9.7032e-05,-1.833e-05,0.0,0 STARLINK-3973,1 52645U 22052AZ  22350.50803173 -.00001833  00000-0 -97032-4 0  9994,2 52645  53.2180 152.6834 0003497  52.8829 307.2482 15.08844095 33117,6917.868,95.437,542.1519999999998,537.314,0.0
52645.0,STARLINK-3973,PAYLOAD,2022-12-16 16:57:43,15.08840136,0.0003539,53.2181,151.7914,53.3101,306.8216,6.476600000000001e-05,7.42e-06,0.0,0 STARLINK-3973,1 52645U 22052AZ  22350.70675429  .00000742  00000-0  64766-4 0  9991,2 52645  53.2181 151.7914 0003539  53.3101 306.8216 15.08840136 33520,6917.88,95.438,542.193,537.297,0.0
52645.0,STARLINK-3973,PAYLOAD,2022-12-16 20:08:29,15.08841308,0.0003554,53.218,151.1967,53.337,306.7949,7.4628e-05,8.99e-06,0.0,0 STARLINK-3973,1 52645U 22052AZ  22350.83923370  .00000899  00000-0  74628-4 0  9997,2 52645  53.2180 151.1967 0003554  53.3370 306.7949 15.08841308 33160,6917.876,95.437,542.2,537.283,0.0
